{
  "type": "FeatureCollection",
  "features": [
    {
      "type": "Feature",
      "properties": {
        "norad_id": 41330,
        "name": "COSMOS 2514 (751)",
        "group": "glo-ops",
        "lat": 64.1475245102993,
        "lon": 66.02868754592316,
        "alt_km": 19139.260472826212,
        "timestamp": "2025-12-20T03:42:47.654085+00:00",
        "meta_object_name": "COSMOS 2514 (751)",
        "meta_object_id": "2016-008A",
        "meta_epoch": "2025-12-19T13:24:08.784000",
        "meta_mean_motion": 2.13102719,
        "meta_eccentricity": 0.00118,
        "meta_inclination": 65.1299,
        "meta_ra_of_asc_node": 319.1705,
        "meta_arg_of_pericenter": 220.1484,
        "meta_mean_anomaly": 139.7557,
        "meta_ephemeris_type": 0,
        "meta_classification_type": "U",
        "meta_norad_cat_id": 41330,
        "meta_element_set_no": 999,
        "meta_rev_at_epoch": 7679,
        "meta_bstar": 0,
        "meta_mean_motion_dot": -5.7e-07,
        "meta_mean_motion_ddot": 0,
        "tle_line1": "1 41330U 16008A   25353.55843500 -.00000057  00000+0  00000+0 0  9995",
        "tle_line2": "2 41330  65.1299 319.1705 0011800 220.1484 139.7557  2.13102719 76794"
      },
      "geometry": {
        "type": "Point",
        "coordinates": [
          66.02868754592316,
          64.1475245102993
        ]
      }
    },
    {
      "type": "Feature",
      "properties": {
        "norad_id": 42939,
        "name": "COSMOS 2522 (752)",
        "group": "glo-ops",
        "lat": -36.524940300866305,
        "lon": 39.10729685202502,
        "alt_km": 19118.280073429887,
        "timestamp": "2025-12-20T03:42:47.654096+00:00",
        "meta_object_name": "COSMOS 2522 (752)",
        "meta_object_id": "2017-055A",
        "meta_epoch": "2025-12-18T22:15:40.453056",
        "meta_mean_motion": 2.13102086,
        "meta_eccentricity": 0.00063844,
        "meta_inclination": 64.0762,
        "meta_ra_of_asc_node": 198.0182,
        "meta_arg_of_pericenter": 224.0179,
        "meta_mean_anomaly": 136.0111,
        "meta_ephemeris_type": 0,
        "meta_classification_type": "U",
        "meta_norad_cat_id": 42939,
        "meta_element_set_no": 999,
        "meta_rev_at_epoch": 6413,
        "meta_bstar": 0,
        "meta_mean_motion_dot": 1.07e-06,
        "meta_mean_motion_ddot": 0,
        "tle_line1": "1 42939U 17055A   25352.92755154  .00000107  00000+0  00000+0 0  9996",
        "tle_line2": "2 42939  64.0762 198.0182 0006384 224.0179 136.0111  2.13102086 64139"
      },
      "geometry": {
        "type": "Point",
        "coordinates": [
          39.10729685202502,
          -36.524940300866305
        ]
      }
    },
    {
      "type": "Feature",
      "properties": {
        "norad_id": 43508,
        "name": "COSMOS 2527 (756)",
        "group": "glo-ops",
        "lat": -59.653492524986106,
        "lon": -48.99332867758824,
        "alt_km": 19115.767605374433,
        "timestamp": "2025-12-20T03:42:47.654107+00:00",
        "meta_object_name": "COSMOS 2527 (756)",
        "meta_object_id": "2018-053A",
        "meta_epoch": "2025-12-18T21:19:14.310912",
        "meta_mean_motion": 2.13102316,
        "meta_eccentricity": 0.0008836,
        "meta_inclination": 65.4759,
        "meta_ra_of_asc_node": 79.9259,
        "meta_arg_of_pericenter": 226.7635,
        "meta_mean_anomaly": 133.1863,
        "meta_ephemeris_type": 0,
        "meta_classification_type": "U",
        "meta_norad_cat_id": 43508,
        "meta_element_set_no": 999,
        "meta_rev_at_epoch": 5843,
        "meta_bstar": 0,
        "meta_mean_motion_dot": -3.3e-07,
        "meta_mean_motion_ddot": 0,
        "tle_line1": "1 43508U 18053A   25352.88836008 -.00000033  00000+0  00000+0 0  9990",
        "tle_line2": "2 43508  65.4759  79.9259 0008836 226.7635 133.1863  2.13102316 58439"
      },
      "geometry": {
        "type": "Point",
        "coordinates": [
          -48.99332867758824,
          -59.653492524986106
        ]
      }
    },
    {
      "type": "Feature",
      "properties": {
        "norad_id": 43687,
        "name": "COSMOS 2529 (757)",
        "group": "glo-ops",
        "lat": 2.9845081775620557,
        "lon": 17.20265928641832,
        "alt_km": 19125.963907004894,
        "timestamp": "2025-12-20T03:42:47.654118+00:00",
        "meta_object_name": "COSMOS 2529 (757)",
        "meta_object_id": "2018-086A",
        "meta_epoch": "2025-12-18T12:23:46.661856",
        "meta_mean_motion": 2.13102105,
        "meta_eccentricity": 0.00070461,
        "meta_inclination": 64.2922,
        "meta_ra_of_asc_node": 198.6932,
        "meta_arg_of_pericenter": 253.6593,
        "meta_mean_anomaly": 106.345,
        "meta_ephemeris_type": 0,
        "meta_classification_type": "U",
        "meta_norad_cat_id": 43687,
        "meta_element_set_no": 999,
        "meta_rev_at_epoch": 5543,
        "meta_bstar": 0,
        "meta_mean_motion_dot": 1.09e-06,
        "meta_mean_motion_ddot": 0,
        "tle_line1": "1 43687U 18086A   25352.51651229  .00000109  00000+0  00000+0 0  9997",
        "tle_line2": "2 43687  64.2922 198.6932 0007046 253.6593 106.3450  2.13102105 55434"
      },
      "geometry": {
        "type": "Point",
        "coordinates": [
          17.20265928641832,
          2.9845081775620557
        ]
      }
    },
    {
      "type": "Feature",
      "properties": {
        "norad_id": 44299,
        "name": "COSMOS 2534 (758)",
        "group": "glo-ops",
        "lat": -42.71662622524379,
        "lon": 172.31705841262504,
        "alt_km": 19115.20489110848,
        "timestamp": "2025-12-20T03:42:47.654129+00:00",
        "meta_object_name": "COSMOS 2534 (758)",
        "meta_object_id": "2019-030A",
        "meta_epoch": "2025-12-18T18:30:09.690336",
        "meta_mean_motion": 2.13102412,
        "meta_eccentricity": 0.0008748,
        "meta_inclination": 64.3658,
        "meta_ra_of_asc_node": 198.6898,
        "meta_arg_of_pericenter": 284.2192,
        "meta_mean_anomaly": 45.4012,
        "meta_ephemeris_type": 0,
        "meta_classification_type": "U",
        "meta_norad_cat_id": 44299,
        "meta_element_set_no": 999,
        "meta_rev_at_epoch": 5107,
        "meta_bstar": 0,
        "meta_mean_motion_dot": 1.08e-06,
        "meta_mean_motion_ddot": 0,
        "tle_line1": "1 44299U 19030A   25352.77094549  .00000108  00000+0  00000+0 0  9990",
        "tle_line2": "2 44299  64.3658 198.6898 0008748 284.2192  45.4012  2.13102412 51071"
      },
      "geometry": {
        "type": "Point",
        "coordinates": [
          172.31705841262504,
          -42.71662622524379
        ]
      }
    },
    {
      "type": "Feature",
      "properties": {
        "norad_id": 44850,
        "name": "COSMOS 2544 (759)",
        "group": "glo-ops",
        "lat": -56.22198842944705,
        "lon": 36.748595581422684,
        "alt_km": 19110.25973652812,
        "timestamp": "2025-12-20T03:42:47.654140+00:00",
        "meta_object_name": "COSMOS 2544 (759)",
        "meta_object_id": "2019-088A",
        "meta_epoch": "2025-12-19T07:15:09.090720",
        "meta_mean_motion": 2.13102067,
        "meta_eccentricity": 0.0014082,
        "meta_inclination": 65.4636,
        "meta_ra_of_asc_node": 79.7387,
        "meta_arg_of_pericenter": 249.9981,
        "meta_mean_anomaly": 109.8765,
        "meta_ephemeris_type": 0,
        "meta_classification_type": "U",
        "meta_norad_cat_id": 44850,
        "meta_element_set_no": 999,
        "meta_rev_at_epoch": 4688,
        "meta_bstar": 0,
        "meta_mean_motion_dot": -2.9e-07,
        "meta_mean_motion_ddot": 0,
        "tle_line1": "1 44850U 19088A   25353.30218855 -.00000029  00000+0  00000+0 0  9997",
        "tle_line2": "2 44850  65.4636  79.7387 0014082 249.9981 109.8765  2.13102067 46885"
      },
      "geometry": {
        "type": "Point",
        "coordinates": [
          36.748595581422684,
          -56.22198842944705
        ]
      }
    },
    {
      "type": "Feature",
      "properties": {
        "norad_id": 45358,
        "name": "COSMOS 2545 (760)",
        "group": "glo-ops",
        "lat": 32.30972053169579,
        "lon": 121.10408883498724,
        "alt_km": 19134.285214032796,
        "timestamp": "2025-12-20T03:42:47.654151+00:00",
        "meta_object_name": "COSMOS 2545 (760)",
        "meta_object_id": "2020-018A",
        "meta_epoch": "2025-12-19T00:41:16.420128",
        "meta_mean_motion": 2.13102611,
        "meta_eccentricity": 0.0011548,
        "meta_inclination": 64.4657,
        "meta_ra_of_asc_node": 318.7488,
        "meta_arg_of_pericenter": 249.6698,
        "meta_mean_anomaly": 110.1972,
        "meta_ephemeris_type": 0,
        "meta_classification_type": "U",
        "meta_norad_cat_id": 45358,
        "meta_element_set_no": 999,
        "meta_rev_at_epoch": 4482,
        "meta_bstar": 0,
        "meta_mean_motion_dot": -6.1e-07,
        "meta_mean_motion_ddot": 0,
        "tle_line1": "1 45358U 20018A   25353.02866227 -.00000061  00000+0  00000+0 0  9993",
        "tle_line2": "2 45358  64.4657 318.7488 0011548 249.6698 110.1972  2.13102611 44827"
      },
      "geometry": {
        "type": "Point",
        "coordinates": [
          121.10408883498724,
          32.30972053169579
        ]
      }
    }
  ]
}